ARIANE 5 R/B            
1 28499U 04049H   25299.88863872  .00001413  00000+0  16260-3 0  9992
2 28499  98.2507  98.5032 0085891  65.0651 295.9458 14.84871534125933
CZ-2D R/B               
1 28738U 05024B   25299.77201722  .00029580  00000+0  52645-3 0  9992
2 28738  97.3685 306.0860 0007299 135.6653 224.5184 15.50072226118979
ALOS (DAICHI)           
1 28931U 06002A   25299.84463543  .00002404  00000+0  41613-3 0  9992
2 28931  98.1014 251.6897 0001822  56.7218 303.4162 14.69251837 53821
H-2A R/B                
1 28932U 06002B   25299.92394249  .00009947  00000+0  54154-3 0  9991
2 28932  98.2289  70.9095 0055419 336.5554  23.3149 15.13334256 74184
RESURS-DK 1             
1 29228U 06021A   25299.92444029  .00003964  00000+0  23780-3 0  9997
2 29228  69.9336 222.7846 0006844 299.0301  61.0179 15.11778747 67306
CZ-4B R/B               
1 29507U 06046C   25299.62695849  .00005660  00000+0  30061-3 0  9994
2 29507  97.5798 339.8961 0034865  14.4355 345.7864 15.15188457 39731
CZ-2C R/B               
1 31114U 07010B   25299.93791313  .00000217  00000+0  11911-3 0  9996
2 31114  98.3945  54.9523 0058306 324.0285  35.6974 14.20182172960731
COSMO-SKYMED 1          
1 31598U 07023A   25299.95251934  .00003861  00000+0  35595-3 0  9990
2 31598  97.8875 125.0581 0001389  81.9179 278.2199 14.95275391994905
COSMOS 2428             
1 31792U 07029A   25299.94095864 -.00000238  00000+0 -10216-3 0  9999
2 31792  70.9366 124.1300 0001738 127.3115 232.8165 14.12894456945206
SL-16 R/B               
1 31793U 07029B   25299.87743580 -.00000114  00000+0 -34495-4 0  9996
2 31793  70.9734  93.6611 0002576 263.3345 208.6200 14.14804243946443
KORONAS-FOTON           
1 33504U 09003A   25299.78909345  .00015995  00000+0  40372-3 0  9996
2 33504  82.4329  54.6872 0010674 278.6332  81.3704 15.39648450925112
CZ-2C R/B               
1 37731U 11030B   25299.90129122  .00002342  00000+0  30401-3 0  9990
2 37731  97.8336 255.0739 0054670  66.3806 358.8609 14.80650708770294
