CCSDS_OMM_VERS = 2.0
CREATION_DATE  = 
ORIGINATOR     = 

OBJECT_NAME    = ARIANE 5 R/B
OBJECT_ID      = 2004-049H
CENTER_NAME    = EARTH
REF_FRAME      = TEME
TIME_SYSTEM    = UTC
MEAN_ELEMENT_THEORY = SGP/SGP4

EPOCH          = 2025-10-26T21:19:38.385408
MEAN_MOTION    = 14.84871534
ECCENTRICITY   = .00858917
INCLINATION    = 98.2507
RA_OF_ASC_NODE = 98.5032
ARG_OF_PERICENTER = 65.0651
MEAN_ANOMALY   = 295.9458

EPHEMERIS_TYPE = 0
CLASSIFICATION_TYPE = U
NORAD_CAT_ID   = 28499
ELEMENT_SET_NO = 999
REV_AT_EPOCH   = 12593
BSTAR          = .16259625E-3
MEAN_MOTION_DOT = .1413E-4
MEAN_MOTION_DDOT = 0

CCSDS_OMM_VERS = 2.0
CREATION_DATE  = 
ORIGINATOR     = 

OBJECT_NAME    = CZ-2D R/B
OBJECT_ID      = 2005-024B
CENTER_NAME    = EARTH
REF_FRAME      = TEME
TIME_SYSTEM    = UTC
MEAN_ELEMENT_THEORY = SGP/SGP4

EPOCH          = 2025-10-26T18:31:42.287808
MEAN_MOTION    = 15.50072226
ECCENTRICITY   = .00072993
INCLINATION    = 97.3685
RA_OF_ASC_NODE = 306.0860
ARG_OF_PERICENTER = 135.6653
MEAN_ANOMALY   = 224.5184

EPHEMERIS_TYPE = 0
CLASSIFICATION_TYPE = U
NORAD_CAT_ID   = 28738
ELEMENT_SET_NO = 999
REV_AT_EPOCH   = 11897
BSTAR          = .52645194E-3
MEAN_MOTION_DOT = .2958E-3
MEAN_MOTION_DDOT = 0

CCSDS_OMM_VERS = 2.0
CREATION_DATE  = 
ORIGINATOR     = 

OBJECT_NAME    = ALOS (DAICHI)
OBJECT_ID      = 2006-002A
CENTER_NAME    = EARTH
REF_FRAME      = TEME
TIME_SYSTEM    = UTC
MEAN_ELEMENT_THEORY = SGP/SGP4

EPOCH          = 2025-10-26T20:16:16.501152
MEAN_MOTION    = 14.69251837
ECCENTRICITY   = .0001822
INCLINATION    = 98.1014
RA_OF_ASC_NODE = 251.6897
ARG_OF_PERICENTER = 56.7218
MEAN_ANOMALY   = 303.4162

EPHEMERIS_TYPE = 0
CLASSIFICATION_TYPE = U
NORAD_CAT_ID   = 28931
ELEMENT_SET_NO = 999
REV_AT_EPOCH   = 5382
BSTAR          = .41612903E-3
MEAN_MOTION_DOT = .2404E-4
MEAN_MOTION_DDOT = 0

CCSDS_OMM_VERS = 2.0
CREATION_DATE  = 
ORIGINATOR     = 

OBJECT_NAME    = H-2A R/B
OBJECT_ID      = 2006-002B
CENTER_NAME    = EARTH
REF_FRAME      = TEME
TIME_SYSTEM    = UTC
MEAN_ELEMENT_THEORY = SGP/SGP4

EPOCH          = 2025-10-26T22:10:28.631136
MEAN_MOTION    = 15.13334256
ECCENTRICITY   = .00554197
INCLINATION    = 98.2289
RA_OF_ASC_NODE = 70.9095
ARG_OF_PERICENTER = 336.5554
MEAN_ANOMALY   = 23.3149

EPHEMERIS_TYPE = 0
CLASSIFICATION_TYPE = U
NORAD_CAT_ID   = 28932
ELEMENT_SET_NO = 999
REV_AT_EPOCH   = 7418
BSTAR          = .54153914E-3
MEAN_MOTION_DOT = .9947E-4
MEAN_MOTION_DDOT = 0

CCSDS_OMM_VERS = 2.0
CREATION_DATE  = 
ORIGINATOR     = 

OBJECT_NAME    = RESURS-DK 1
OBJECT_ID      = 2006-021A
CENTER_NAME    = EARTH
REF_FRAME      = TEME
TIME_SYSTEM    = UTC
MEAN_ELEMENT_THEORY = SGP/SGP4

EPOCH          = 2025-10-26T22:11:11.641056
MEAN_MOTION    = 15.11778747
ECCENTRICITY   = .00068448
INCLINATION    = 69.9336
RA_OF_ASC_NODE = 222.7846
ARG_OF_PERICENTER = 299.0301
MEAN_ANOMALY   = 61.0179

EPHEMERIS_TYPE = 0
CLASSIFICATION_TYPE = U
NORAD_CAT_ID   = 29228
ELEMENT_SET_NO = 999
REV_AT_EPOCH   = 6730
BSTAR          = .23779778E-3
MEAN_MOTION_DOT = .3964E-4
MEAN_MOTION_DDOT = 0

CCSDS_OMM_VERS = 2.0
CREATION_DATE  = 
ORIGINATOR     = 

OBJECT_NAME    = CZ-4B R/B
OBJECT_ID      = 2006-046C
CENTER_NAME    = EARTH
REF_FRAME      = TEME
TIME_SYSTEM    = UTC
MEAN_ELEMENT_THEORY = SGP/SGP4

EPOCH          = 2025-10-26T15:02:49.213536
MEAN_MOTION    = 15.15188457
ECCENTRICITY   = .00348653
INCLINATION    = 97.5798
RA_OF_ASC_NODE = 339.8961
ARG_OF_PERICENTER = 14.4355
MEAN_ANOMALY   = 345.7864

EPHEMERIS_TYPE = 0
CLASSIFICATION_TYPE = U
NORAD_CAT_ID   = 29507
ELEMENT_SET_NO = 999
REV_AT_EPOCH   = 3973
BSTAR          = .30061023E-3
MEAN_MOTION_DOT = .566E-4
MEAN_MOTION_DDOT = 0

CCSDS_OMM_VERS = 2.0
CREATION_DATE  = 
ORIGINATOR     = 

OBJECT_NAME    = CZ-2C R/B
OBJECT_ID      = 2007-010B
CENTER_NAME    = EARTH
REF_FRAME      = TEME
TIME_SYSTEM    = UTC
MEAN_ELEMENT_THEORY = SGP/SGP4

EPOCH          = 2025-10-26T22:30:35.694432
MEAN_MOTION    = 14.20182172
ECCENTRICITY   = .00583064
INCLINATION    = 98.3945
RA_OF_ASC_NODE = 54.9523
ARG_OF_PERICENTER = 324.0285
MEAN_ANOMALY   = 35.6974

EPHEMERIS_TYPE = 0
CLASSIFICATION_TYPE = U
NORAD_CAT_ID   = 31114
ELEMENT_SET_NO = 999
REV_AT_EPOCH   = 96073
BSTAR          = .11910925E-3
MEAN_MOTION_DOT = .217E-5
MEAN_MOTION_DDOT = 0

CCSDS_OMM_VERS = 2.0
CREATION_DATE  = 
ORIGINATOR     = 

OBJECT_NAME    = COSMO-SKYMED 1
OBJECT_ID      = 2007-023A
CENTER_NAME    = EARTH
REF_FRAME      = TEME
TIME_SYSTEM    = UTC
MEAN_ELEMENT_THEORY = SGP/SGP4

EPOCH          = 2025-10-26T22:51:37.670976
MEAN_MOTION    = 14.95275391
ECCENTRICITY   = .00013894
INCLINATION    = 97.8875
RA_OF_ASC_NODE = 125.0581
ARG_OF_PERICENTER = 81.9179
MEAN_ANOMALY   = 278.2199

EPHEMERIS_TYPE = 0
CLASSIFICATION_TYPE = U
NORAD_CAT_ID   = 31598
ELEMENT_SET_NO = 999
REV_AT_EPOCH   = 99490
BSTAR          = .35595414E-3
MEAN_MOTION_DOT = .3861E-4
MEAN_MOTION_DDOT = 0

CCSDS_OMM_VERS = 2.0
CREATION_DATE  = 
ORIGINATOR     = 

OBJECT_NAME    = COSMOS 2428
OBJECT_ID      = 2007-029A
CENTER_NAME    = EARTH
REF_FRAME      = TEME
TIME_SYSTEM    = UTC
MEAN_ELEMENT_THEORY = SGP/SGP4

EPOCH          = 2025-10-26T22:34:58.826496
MEAN_MOTION    = 14.12894456
ECCENTRICITY   = .00017386
INCLINATION    = 70.9366
RA_OF_ASC_NODE = 124.1300
ARG_OF_PERICENTER = 127.3115
MEAN_ANOMALY   = 232.8165

EPHEMERIS_TYPE = 0
CLASSIFICATION_TYPE = U
NORAD_CAT_ID   = 31792
ELEMENT_SET_NO = 999
REV_AT_EPOCH   = 94520
BSTAR          = -.10215602E-3
MEAN_MOTION_DOT = -.238E-5
MEAN_MOTION_DDOT = 0

CCSDS_OMM_VERS = 2.0
CREATION_DATE  = 
ORIGINATOR     = 

OBJECT_NAME    = SL-16 R/B
OBJECT_ID      = 2007-029B
CENTER_NAME    = EARTH
REF_FRAME      = TEME
TIME_SYSTEM    = UTC
MEAN_ELEMENT_THEORY = SGP/SGP4

EPOCH          = 2025-10-26T21:03:30.453120
MEAN_MOTION    = 14.14804243
ECCENTRICITY   = .00025761
INCLINATION    = 70.9734
RA_OF_ASC_NODE = 93.6611
ARG_OF_PERICENTER = 263.3345
MEAN_ANOMALY   = 208.6200

EPHEMERIS_TYPE = 0
CLASSIFICATION_TYPE = U
NORAD_CAT_ID   = 31793
ELEMENT_SET_NO = 999
REV_AT_EPOCH   = 94644
BSTAR          = -.34495093E-4
MEAN_MOTION_DOT = -.114E-5
MEAN_MOTION_DDOT = 0

CCSDS_OMM_VERS = 2.0
CREATION_DATE  = 
ORIGINATOR     = 

OBJECT_NAME    = KORONAS-FOTON
OBJECT_ID      = 2009-003A
CENTER_NAME    = EARTH
REF_FRAME      = TEME
TIME_SYSTEM    = UTC
MEAN_ELEMENT_THEORY = SGP/SGP4

EPOCH          = 2025-10-26T18:56:17.674080
MEAN_MOTION    = 15.39648450
ECCENTRICITY   = .00106746
INCLINATION    = 82.4329
RA_OF_ASC_NODE = 54.6872
ARG_OF_PERICENTER = 278.6332
MEAN_ANOMALY   = 81.3704

EPHEMERIS_TYPE = 0
CLASSIFICATION_TYPE = U
NORAD_CAT_ID   = 33504
ELEMENT_SET_NO = 999
REV_AT_EPOCH   = 92511
BSTAR          = .40371883E-3
MEAN_MOTION_DOT = .15995E-3
MEAN_MOTION_DDOT = 0

CCSDS_OMM_VERS = 2.0
CREATION_DATE  = 
ORIGINATOR     = 

OBJECT_NAME    = CZ-2C R/B
OBJECT_ID      = 2011-030B
CENTER_NAME    = EARTH
REF_FRAME      = TEME
TIME_SYSTEM    = UTC
MEAN_ELEMENT_THEORY = SGP/SGP4

EPOCH          = 2025-10-26T21:37:51.561408
MEAN_MOTION    = 14.80650708
ECCENTRICITY   = .00546701
INCLINATION    = 97.8336
RA_OF_ASC_NODE = 255.0739
ARG_OF_PERICENTER = 66.3806
MEAN_ANOMALY   = 358.8609

EPHEMERIS_TYPE = 0
CLASSIFICATION_TYPE = U
NORAD_CAT_ID   = 37731
ELEMENT_SET_NO = 999
REV_AT_EPOCH   = 77029
BSTAR          = .3040104E-3
MEAN_MOTION_DOT = .2342E-4
MEAN_MOTION_DDOT = 0

